satname,norad_id,inclination_deg,eccentricity,mean_motion_rev_per_day,perigee_km,apogee_km,l1,l2
STARLINK-1234,45190,53.0341,0.0002239,15.84700926,315.66791019991433,318.66606732608216,1 45190U 20012N   26189.92433128  .00097522  00000+0  41116-3 0  9992,2 45190  53.0341  84.3421 0002239 210.4526 149.6367 15.84700926354948
STARLINK-1269,45197,53.1577,0.0003235,15.37687551,450.73950257375054,455.1592154480304,1 45197U 20012V   26190.73096324  .00026052  00000+0  70172-3 0  9997,2 45197  53.1577 190.2975 0003235  21.2404 338.8734 15.37687551353639
STARLINK-1154,45198,53.0389,0.0004066,15.6635499,366.60111142238657,372.08816348996606,1 45198U 20012W   26190.58863529  .00037618  00000+0  35970-3 0  9997,2 45198  53.0389 138.8827 0004066  73.4380 286.7081 15.66354990354287
STARLINK-1199,45201,53.1529,0.0005643,15.37544222,449.5188574894446,457.2289006675719,1 45201U 20012Z   26189.27246636  .00035209  00000+0  94768-3 0  9994,2 45201  53.1529 181.4227 0005643  26.6595 333.4698 15.37544222353658
STARLINK-1209,45206,53.0347,0.0001279,15.74175781,346.11747345434014,347.83775777301435,1 45206U 20012AE  26190.13177063  .00060024  00000+0  41139-3 0  9990,2 45206  53.0347 100.1748 0001279 185.8306 174.2698 15.74175781353893
STARLINK-1231,45212,53.0347,0.0002547,15.29872447,474.4474602125356,477.93905604602605,1 45212U 20012AL  26190.64621475  .00028623  00000+0  98457-3 0  9998,2 45212  53.0347 171.5422 0002547  91.3573 268.7718 15.29872447353847
STARLINK-1271,45217,53.1531,0.0005178,15.37740518,449.2554397030217,456.32955028803826,1 45217U 20012AR  26189.39629735  .00035541  00000+0  95049-3 0  9991,2 45217  53.1531 180.9224 0005178  29.9267 330.2032 15.37740518353679
STARLINK-1191,45222,53.1526,0.0003213,15.42062685,437.8318131775013,442.2131624643753,1 45222U 20012AW  26189.61847092  .00038195  00000+0  88556-3 0  9993,2 45222  53.1526 151.9653 0003213  17.2707 342.8407 15.42062685354102
STARLINK-1212,45223,53.037,0.0001451,15.72929105,349.5542885727591,351.5069479155727,1 45223U 20012AX  26190.78230819  .00059205  00000+0  42812-3 0  9997,2 45223  53.0370 112.5294 0001451 154.6456 205.4633 15.72929105354738
STARLINK-1215,45225,53.1551,0.0004915,15.37895062,448.9776809361174,455.692034772389,1 45225U 20012AZ  26190.30270857  .00019670  00000+0  52917-3 0  9992,2 45225  53.1551 150.8954 0004915  38.9453 321.1905 15.37895062354136
STARLINK-1221,45227,53.0637,0.0002914,15.46417182,425.2340635424107,429.20022393738236,1 45227U 20012BB  26189.89372006  .00012784  00000+0  26238-3 0  9991,2 45227  53.0637  53.4711 0002914  52.4354 307.6917 15.46417182355438
STARLINK-1222,45228,53.0511,0.0003813,15.57376584,392.6702862137927,397.8356734123972,1 45228U 20012BC  26189.96897533  .00023396  00000+0  31955-3 0  9990,2 45228  53.0511 117.9954 0003813  85.9450 274.1997 15.57376584354473
STARLINK-1226,45229,53.1525,0.0006143,15.47606091,419.5529495072542,427.90972494637117,1 45229U 20012BD  26190.59627610  .00024144  00000+0  46746-3 0  9995,2 45229  53.1525 143.4709 0006143  45.4115 314.7394 15.47606091354201
STARLINK-1227,45230,53.1502,0.0005044,15.4762054,420.25816008253787,427.119842152465,1 45230U 20012BE  26189.50634283  .00064046  00000+0  12195-2 0  9995,2 45230  53.1502 148.7476 0005044  29.6919 330.4374 15.47620540354154
STARLINK-1246,45235,53.1537,0.0005587,15.37905745,448.4870591324843,456.11939304111456,1 45235U 20012BK  26190.73532808  .00049580  00000+0  13122-2 0  9994,2 45235  53.1537 189.8817 0005587  13.1422 346.9727 15.37905745353695
STARLINK-1270,45237,53.038,0.0001609,15.71789171,352.7003525147911,354.8666845376529,1 45237U 20012BM  26189.95162165  .00048453  00000+0  36899-3 0  9998,2 45237  53.0380 118.5540 0001609 157.7980 202.3107 15.71789171354575
STARLINK-1279,45360,53.0313,0.0004129,15.86070732,310.54861293932663,316.0744111205613,1 45360U 20019A   26190.63227412  .00111187  00000+0  43759-3 0  9994,2 45360  53.0313 215.2286 0004129  23.2432 336.8777 15.86070732349830
STARLINK-1301,45361,53.0301,0.000618,15.87558105,304.9986771534177,313.26414090697926,1 45361U 20019B   26190.11292219  .00115026  00000+0  42034-3 0  9996,2 45361  53.0301 219.8280 0006180  24.1505 335.9808 15.87558105349732
STARLINK-1262,45366,53.153,0.000161,15.36915507,454.1366495881175,456.3369959590509,1 45366U 20019G   26190.53236948  .00037775  00000+0  10368-2 0  9992,2 45366  53.1530 317.5117 0001610 261.6062  98.4759 15.36915507348435
STARLINK-1273,45367,53.0416,0.0001618,15.61699792,381.65290896786337,383.840730972006,1 45367U 20019H   26189.58618457  .00077500  00000+0  87938-3 0  9993,2 45367  53.0416 292.0214 0001618 336.6022  23.4917 15.61699792348684
STARLINK-1277,45369,53.0402,0.0002422,15.7027272,356.4854213754652,359.748462785009,1 45369U 20019K   26188.29257259  .00046903  00000+0  38076-3 0  9993,2 45369  53.0402 290.5480 0002422   6.8899 353.2151 15.70272720348593
STARLINK-1281,45370,53.1568,0.0001245,15.3765804,452.18627986147203,453.88724212796023,1 45370U 20019L   26189.68189801  .00043216  00000+0  11558-2 0  9995,2 45370  53.1568 320.9587 0001245 208.9323 151.1612 15.37658040348317
STARLINK-1300,45374,53.1562,0.0001831,15.38285187,449.92950899342486,452.4304048630529,1 45374U 20019Q   26190.33216925  .00043665  00000+0  11441-2 0  9990,2 45374  53.1562 317.6807 0001831 229.1857 130.8988 15.38285187348411
STARLINK-1302,45375,53.0433,9.93e-05,15.70614589,356.47059249774065,357.8082183918632,1 45375U 20019R   26189.28128336  .00042997  00000+0  34471-3 0  9997,2 45375  53.0433 281.4576 0000993 104.8472 255.2655 15.70614589348803
STARLINK-1304,45376,53.0406,5.82e-05,15.66402552,368.81535497096866,369.60074593484114,1 45376U 20019S   26190.25641413  .00040772  00000+0  38862-3 0  9990,2 45376  53.0406 278.8842 0000582 293.3991  66.6962 15.66402552348922
STARLINK-1305,45377,53.0356,0.0006586,15.75758933,338.046222870581,346.8986095936407,1 45377U 20019T   26189.46422737  .00056524  00000+0  36170-3 0  9990,2 45377  53.0356 259.3348 0006586 358.8997   1.2006 15.75758933349130
STARLINK-1319,45379,53.0343,0.0003749,15.83714211,317.4365431088254,322.458766983179,1 45379U 20019V   26190.62690536  .00088484  00000+0  39158-3 0  9995,2 45379  53.0343 243.6365 0003749  18.9384 341.1777 15.83714211349451
STARLINK-1266,45383,53.0432,0.0003692,15.68746205,359.9975366560002,364.97481280822194,1 45383U 20019Z   26188.24778552  .00040458  00000+0  35067-3 0  9994,2 45383  53.0432 273.1904 0003692 353.1750   6.9215 15.68746205348824
STARLINK-1267,45384,53.0408,0.0002354,15.73446665,347.4714316048703,350.6385936044044,1 45384U 20019AA  26190.21000094  .00058331  00000+0  41268-3 0  9993,2 45384  53.0408 254.2123 0002354  31.4947 328.6212 15.73446665349262
STARLINK-1272,45386,53.0369,0.0002708,15.78324208,333.37039934580207,337.00633636503335,1 45386U 20019AC  26189.50935557  .00067347  00000+0  38391-3 0  9996,2 45386  53.0369 235.4557 0002708  40.9786 319.1437 15.78324208349460
STARLINK-1274,45387,53.0167,0.0005955,15.68329588,359.66510636079784,367.69461023903295,1 45387U 20019AD  26190.60678503  .00092699  00000+0  80522-3 0  9996,2 45387  53.0167 231.2408 0005955 317.4884  42.5670 15.68329588349612
STARLINK-1280,45388,53.0302,0.0006719,15.91109177,294.6913559261575,303.664331613214,1 45388U 20019AE  26190.83335647  .00171577  21958-4  53784-3 0  9994,2 45388  53.0302 233.4955 0006719  18.8685   7.2774 15.91109177  5893
STARLINK-1283,45389,53.0339,0.0004031,15.75798385,339.6512109876003,345.06927586525126,1 45389U 20019AF  26189.59672693  .00062370  00000+0  39802-3 0  9996,2 45389  53.0339 234.1812 0004031 353.3528   6.7437 15.75798385349496
STARLINK-1284,45390,53.0394,0.0003782,15.73818651,345.45112673179483,350.53877293865116,1 45390U 20019AG  26189.45817164  .00050944  00000+0  35551-3 0  9998,2 45390  53.0394 259.1595 0003782  58.3516 301.7871 15.73818651349122
STARLINK-1297,45395,53.0398,0.0003216,15.77049706,336.6446546313873,340.9649916120188,1 45395U 20019AM  26190.72125494  .00067142  00000+0  40508-3 0  9999,2 45395  53.0398 251.6640 0003216  21.5983 338.5171 15.77049706348526
STARLINK-1307,45397,53.0528,0.0001955,15.58906527,389.4972270350936,392.14388944036546,1 45397U 20019AP  26190.50821553  .00025014  00000+0  32220-3 0  9990,2 45397  53.0528 262.1815 0001955 346.8490  13.2470 15.58906527349003
STARLINK-1255,45399,53.0314,0.0001074,15.68777592,361.6723333906575,363.1201999363375,1 45399U 20019AR  26190.10057586  .00037624  00000+0  32622-3 0  9991,2 45399  53.0314 229.7902 0001074 321.4661  38.6278 15.68777592349405
STARLINK-1260,45404,53.1545,0.0001377,15.40944209,442.38202725099745,444.2606568784022,1 45404U 20019AW  26190.24567913  .00040481  00000+0  97327-3 0  9991,2 45404  53.1545 280.3129 0001377 258.4577 101.6274 15.40944209348647
STARLINK-1263,45405,53.1533,0.0002988,15.38034532,449.88110216928726,453.9627453821349,1 45405U 20019AX  26190.53636992  .00038100  00000+0  10084-2 0  9997,2 45405  53.1533 280.8699 0002988 289.1568  70.9112 15.38034532348669
STARLINK-1265,45406,53.154,0.0001253,15.41420934,441.0602400271555,442.7693450063616,1 45406U 20019AY  26190.68423948  .00029123  00000+0  69293-3 0  9991,2 45406  53.1540 278.1438 0001253 324.2988  35.7934 15.41420934348716
STARLINK-1278,45408,53.0368,0.0002505,15.78051725,334.27925958718697,337.6430227559131,1 45408U 20019BA  26189.45977725  .00065807  00000+0  37990-3 0  9991,2 45408  53.0368 256.6584 0002505  29.3525 330.7635 15.78051725348881
STARLINK-1296,45412,53.1514,0.0001266,15.4156093,440.6385138398964,442.36524640434254,1 45412U 20019BE  26190.59028140  .00030754  00000+0  72766-3 0  9994,2 45412  53.1514 278.2336 0001266 291.6187  68.4684 15.41560930348709
STARLINK-1309,45414,53.0567,0.000296,15.76322089,338.88282675770097,342.8604798804654,1 45414U 20019BG  26189.44192548  .00053616  00000+0  33538-3 0  9998,2 45414  53.0567 251.0561 0002960  30.0142 330.1047 15.76322089348942
